ONEWEB-0492             
1 54114U 22138B   25225.41949274  .00000101  00000+0  22111-3 0  9998
2 54114  87.9249   6.1544 0001653  91.4762 268.6560 13.19726855136246
ONEWEB-0495             
1 54115U 22138C   25225.47319383  .00000046  00000+0  81821-4 0  9999
2 54115  87.9240   6.1549 0002071  75.9447 284.1916 13.19725142136230
ONEWEB-0497             
1 54116U 22138D   25225.10675083  .00000047  00000+0  84514-4 0  9995
2 54116  87.9253   6.2001 0001838  93.0776 267.0567 13.19724572136176
ONEWEB-0499             
1 54117U 22138E   25225.46846262  .00000146  00000+0  33337-3 0  9990
2 54117  87.9250   6.1467 0002200  94.1367 266.0017 13.19727011136238
ONEWEB-0500             
1 54118U 22138F   25225.47160140  .00000106  00000+0  23318-3 0  9990
2 54118  87.9255   6.1309 0001774  95.9899 264.1436 13.19727419136240
ONEWEB-0501             
1 54119U 22138G   25225.42582080  .00000098  00000+0  21150-3 0  9999
2 54119  87.9253   6.1327 0002008  84.6643 275.4719 13.19725899136218
ONEWEB-0502             
1 54120U 22138H   25225.10833160  .00000100  00000+0  21647-3 0  9999
2 54120  87.9248   6.1793 0002049  90.2212 269.9156 13.19726340136193
ONEWEB-0503             
1 54121U 22138J   25225.32471092 -.00000023  00000+0 -90215-4 0  9990
2 54121  87.9251   6.1406 0002117 100.4612 259.6760 13.19726242136214
